sat26011
1 26011U 91068W   20046.20807174 -.00000093  00000-0 -58782-3 0  9992
2 26011  82.4247 311.1996 0056998  71.5841  83.0193 12.60813975936141
